NORAD_CAT_ID,OBJECT_NAME,OBJECT_TYPE,EPOCH,MEAN_MOTION,ECCENTRICITY,INCLINATION,RA_OF_ASC_NODE,ARG_OF_PERICENTER,MEAN_ANOMALY,BSTAR,MEAN_MOTION_DOT,MEAN_MOTION_DDOT,TLE_LINE0,TLE_LINE1,TLE_LINE2,SEMIMAJOR_AXIS,PERIOD,APOGEE,PERIGEE,DECAYED
53825.0,STARLINK-4751,PAYLOAD,2023-09-07 12:55:43,15.08843542,0.0001391,53.2136,88.0419,81.475,278.6399,0.0001144,1.533e-05,0.0,0 STARLINK-4751,1 53825U 22114H   23250.53869460  .00001533  00000-0  11440-3 0  9991,2 53825  53.2136  88.0419 0001391  81.4750 278.6399 15.08843542 54827,6917.87,95.437,540.697,538.772,0.0
53825.0,STARLINK-4751,PAYLOAD,2023-09-08 12:46:30,15.08844995,0.0001651,53.2145,83.581,81.1189,278.999,0.00013975,1.937e-05,0.0,0 STARLINK-4751,1 53825U 22114H   23251.53229440  .00001937  00000-0  13975-3 0  9993,2 53825  53.2145  83.5810 0001651  81.1189 278.9990 15.08844995 54973,6917.865,95.437,540.872,538.588,0.0
53825.0,STARLINK-4751,PAYLOAD,2023-09-08 19:08:02,15.08846081,0.0001565,53.215,82.3917,80.8157,279.3012,0.00013974,1.937e-05,0.0,0 STARLINK-4751,1 53825U 22114H   23251.79725332  .00001937  00000-0  13974-3 0  9991,2 53825  53.2150  82.3917 0001565  80.8157 279.3012 15.08846081 54472,6917.862,95.437,540.809,538.644,0.0
53825.0,STARLINK-4751,PAYLOAD,2023-09-09 12:37:17,15.08840557,0.0001577,53.2161,79.1214,85.5763,274.5409,7.8379e-05,9.6e-06,0.0,0 STARLINK-4751,1 53825U 22114H   23252.52589637  .00000960  00000-0  78379-4 0  9995,2 53825  53.2161  79.1214 0001577  85.5763 274.5409 15.08840557 55128,6917.879,95.438,540.835,538.653,0.0
53825.0,STARLINK-4751,PAYLOAD,2023-09-09 18:58:49,15.08841405,0.0001473,53.218,77.932,92.2137,267.9024,4.6384e-05,4.5e-06,0.0,0 STARLINK-4751,1 53825U 22114H   23252.79085637  .00000450  00000-0  46384-4 0  9990,2 53825  53.2180  77.9320 0001473  92.2137 267.9024 15.08841405 54624,6917.876,95.437,540.76,538.722,0.0
53825.0,STARLINK-4751,PAYLOAD,2023-09-10 12:28:04,15.0884514,0.0001671,53.218,74.6596,102.8674,257.2505,-1.5079e-05,-5.28e-06,0.0,0 STARLINK-4751,1 53825U 22114H   23253.51949556 -.00000528  00000-0 -15079-4 0  9995,2 53825  53.2180  74.6596 0001671 102.8674 257.2505 15.08845140 55275,6917.865,95.437,540.886,538.574,0.0
53825.0,STARLINK-4751,PAYLOAD,2023-09-11 12:18:51,15.08836484,0.0001434,53.2177,70.1992,93.7947,266.3209,9.2963e-05,1.192e-05,0.0,0 STARLINK-4751,1 53825U 22114H   23254.51309872  .00001192  00000-0  92963-4 0  9990,2 53825  53.2177  70.1992 0001434  93.7947 266.3209 15.08836484 55420,6917.891,95.438,540.748,538.764,0.0
53825.0,STARLINK-4751,PAYLOAD,2023-09-11 18:40:23,15.08841611,0.0001395,53.2177,69.0107,93.2263,266.8889,0.00012337,1.676e-05,0.0,0 STARLINK-4751,1 53825U 22114H   23254.77805523  .00001676  00000-0  12337-3 0  9995,2 53825  53.2177  69.0107 0001395  93.2263 266.8889 15.08841611 54928,6917.875,95.437,540.706,538.775,0.0
53825.0,STARLINK-4751,PAYLOAD,2023-09-12 12:09:38,15.08837506,0.0001382,53.2187,65.7412,97.2965,262.8184,2.7397e-05,1.48e-06,0.0,0 STARLINK-4751,1 53825U 22114H   23255.50670118  .00000148  00000-0  27397-4 0  9993,2 53825  53.2187  65.7412 0001382  97.2965 262.8184 15.08837506 55574,6917.888,95.438,540.709,538.797,0.0
53825.0,STARLINK-4751,PAYLOAD,2023-09-12 16:55:48,15.08839773,0.0001463,53.2188,64.8489,96.0178,264.0981,3.8611e-05,3.27e-06,0.0,0 STARLINK-4751,1 53825U 22114H   23255.70541921  .00000327  00000-0  38611-4 0  9994,2 53825  53.2188  64.8489 0001463  96.0178 264.0981 15.08839773 55063,6917.881,95.438,540.758,538.734,0.0
53825.0,STARLINK-4751,PAYLOAD,2023-09-12 18:31:11,15.08840492,0.0001386,53.2181,64.551,92.7914,267.3237,5.6846e-05,6.17e-06,0.0,0 STARLINK-4751,1 53825U 22114H   23255.77165865  .00000617  00000-0  56846-4 0  9992,2 53825  53.2181  64.5510 0001386  92.7914 267.3237 15.08840492 55614,6917.879,95.438,540.703,538.785,0.0
53825.0,STARLINK-4751,PAYLOAD,2023-09-13 12:00:25,15.08843803,0.0001394,53.2185,61.28,97.2317,262.8834,7.5242e-05,9.1e-06,0.0,0 STARLINK-4751,1 53825U 22114H   23256.50029667  .00000910  00000-0  75242-4 0  9990,2 53825  53.2185  61.2800 0001394  97.2317 262.8834 15.08843803 55724,6917.869,95.437,540.698,538.769,0.0
53825.0,STARLINK-4751,PAYLOAD,2023-09-13 18:21:57,15.08849423,0.0001372,53.2178,60.0902,92.327,267.7879,0.0001568,2.209e-05,0.0,0 STARLINK-4751,1 53825U 22114H   23256.76525165  .00002209  00000-0  15680-3 0  9994,2 53825  53.2178  60.0902 0001372  92.3270 267.7879 15.08849423 55228,6917.852,95.437,540.666,538.767,0.0
53825.0,STARLINK-4751,PAYLOAD,2023-09-13 19:57:20,15.08850924,0.0001382,53.2177,59.793,92.7244,267.3906,0.0001655,2.348e-05,0.0,0 STARLINK-4751,1 53825U 22114H   23256.83149072  .00002348  00000-0  16550-3 0  9992,2 53825  53.2177  59.7930 0001382  92.7244 267.3906 15.08850924 55774,6917.847,95.437,540.668,538.756,0.0
53825.0,STARLINK-4751,PAYLOAD,2023-09-14 10:15:49,15.0883335,0.0001517,53.2177,57.1158,105.3816,254.7344,3.1816e-05,2.18e-06,0.0,0 STARLINK-4751,1 53825U 22114H   23257.42766072  .00000218  00000-0  31816-4 0  9990,2 53825  53.2177  57.1158 0001517 105.3816 254.7344 15.08833350 55325,6917.901,95.438,540.815,538.716,0.0
53825.0,STARLINK-4751,PAYLOAD,2023-09-14 11:51:13,15.0882948,0.0001451,53.2177,56.817,106.544,253.5712,7.9839e-05,9.83e-06,0.0,0 STARLINK-4751,1 53825U 22114H   23257.49390361  .00000983  00000-0  79839-4 0  9997,2 53825  53.2177  56.8170 0001451 106.5440 253.5712 15.08829480 55873,6917.913,95.438,540.781,538.774,0.0
53825.0,STARLINK-4751,PAYLOAD,2023-09-14 18:12:46,15.08827676,0.0001292,53.2176,55.6283,77.4378,282.6758,-8.42e-05,-1.627e-05,0.0,0 STARLINK-4751,1 53825U 22114H   23257.75886752 -.00001627  00000-0 -84200-4 0  9996,2 53825  53.2176  55.6283 0001292  77.4378 282.6758 15.08827676 55376,6917.918,95.438,540.677,538.889,0.0
53825.0,STARLINK-4751,PAYLOAD,2023-09-15 10:06:37,15.08838276,0.0001201,53.2175,52.6539,78.3219,281.7908,2.7908e-05,1.56e-06,0.0,0 STARLINK-4751,1 53825U 22114H   23258.42126596  .00000156  00000-0  27908-4 0  9990,2 53825  53.2175  52.6539 0001201  78.3219 281.7908 15.08838276 55476,6917.886,95.438,540.581,538.92,0.0
53825.0,STARLINK-4751,PAYLOAD,2023-09-15 18:03:32,15.08850456,0.0001278,53.2177,51.1682,75.3278,284.7855,0.00025618,3.793e-05,0.0,0 STARLINK-4751,1 53825U 22114H   23258.75246094  .00003793  00000-0  25618-3 0  9997,2 53825  53.2177  51.1682 0001278  75.3278 284.7855 15.08850456 55521,6917.848,95.437,540.598,538.829,0.0
53825.0,STARLINK-4751,PAYLOAD,2023-09-16 09:57:24,15.08841216,0.0001186,53.2165,48.1942,86.094,274.0188,0.00030483,4.567e-05,0.0,0 STARLINK-4751,1 53825U 22114H   23259.41486689  .00004567  00000-0  30483-3 0  9993,2 53825  53.2165  48.1942 0001186  86.0940 274.0188 15.08841216 55622,6917.877,95.437,540.562,538.921,0.0
53825.0,STARLINK-4751,PAYLOAD,2023-09-17 12:58:56,15.08864115,0.0001316,53.2173,43.1413,72.8437,287.2699,-0.00035766,-5.979e-05,0.0,0 STARLINK-4751,1 53825U 22114H   23260.54093493 -.00005979  00000-0 -35766-3 0  9995,2 53825  53.2173  43.1413 0001316  72.8437 287.2699 15.08864115 56333,6917.807,95.436,540.582,538.761,0.0
53825.0,STARLINK-4751,PAYLOAD,2023-09-17 16:09:43,15.0885118,0.0001257,53.2176,42.5449,82.9159,277.1976,0.00012823,1.754e-05,0.0,0 STARLINK-4751,1 53825U 22114H   23260.67342075  .00001754  00000-0  12823-3 0  9996,2 53825  53.2176  42.5449 0001257  82.9159 277.1976 15.08851180 55811,6917.846,95.437,540.581,538.842,0.0
53825.0,STARLINK-4751,PAYLOAD,2023-09-18 09:38:58,15.08836268,0.0001114,53.2179,39.2738,85.0592,275.0527,1.4783e-05,-5.3e-07,0.0,0 STARLINK-4751,1 53825U 22114H   23261.40206772 -.00000053  00000-0  14783-4 0  9991,2 53825  53.2179  39.2738 0001114  85.0592 275.0527 15.08836268 55926,6917.892,95.438,540.527,538.986,0.0
53825.0,STARLINK-4751,PAYLOAD,2023-09-18 12:49:44,15.08839361,0.0001198,53.2177,38.6785,84.6899,275.423,6.5885e-05,7.61e-06,0.0,0 STARLINK-4751,1 53825U 22114H   23261.53454660  .00000761  00000-0  65885-4 0  9990,2 53825  53.2177  38.6785 0001198  84.6899 275.4230 15.08839361 56480,6917.882,95.438,540.576,538.919,0.0
53825.0,STARLINK-4751,PAYLOAD,2023-09-18 19:11:16,15.08850745,0.0001312,53.2184,37.4896,85.8473,274.2669,0.000221,3.232e-05,0.0,0 STARLINK-4751,1 53825U 22114H   23261.79950131  .00003232  00000-0  22100-3 0  9990,2 53825  53.2184  37.4896 0001312  85.8473 274.2669 15.08850745 56524,6917.848,95.437,540.62,538.805,0.0
53825.0,STARLINK-4751,PAYLOAD,2023-09-19 09:29:45,15.08842595,0.0001277,53.2187,34.8135,86.4685,273.6453,2.508e-05,1.11e-06,0.0,0 STARLINK-4751,1 53825U 22114H   23262.39566240  .00000111  00000-0  25080-4 0  9995,2 53825  53.2187  34.8135 0001277  86.4685 273.6453 15.08842595 56074,6917.872,95.437,540.621,538.854,0.0
53825.0,STARLINK-4751,PAYLOAD,2023-09-19 14:15:54,15.08850906,0.0001412,53.2182,33.9206,81.6542,278.461,0.00012577,1.715e-05,0.0,0 STARLINK-4751,1 53825U 22114H   23262.59437739  .00001715  00000-0  12577-3 0  9994,2 53825  53.2182  33.9206 0001412  81.6542 278.4610 15.08850906 56105,6917.847,95.437,540.689,538.735,0.0
53825.0,STARLINK-4751,PAYLOAD,2023-09-20 12:31:19,15.08827112,0.0002464,53.2177,29.7527,134.2614,225.858,-0.00023515,-4.028e-05,0.0,0 STARLINK-4751,1 53825U 22114H   23263.52174886 -.00004028  00000-0 -23515-3 0  9995,2 53825  53.2177  29.7527 0002464 134.2614 225.8580 15.08827112 56241,6917.92,95.438,541.489,538.08,0.0
53825.0,STARLINK-4751,PAYLOAD,2023-09-20 14:06:42,15.08816881,0.0001307,53.2183,29.4606,81.0733,279.0407,-0.00041338,-6.857e-05,0.0,0 STARLINK-4751,1 53825U 22114H   23263.58799396 -.00006857  00000-0 -41338-3 0  9995,2 53825  53.2183  29.4606 0001307  81.0733 279.0407 15.08816881 56799,6917.951,95.439,540.72,538.912,0.0
53825.0,STARLINK-4751,PAYLOAD,2023-09-20 20:28:15,15.08822396,0.000135,53.2184,28.2713,72.8667,287.2473,-0.00016585,-2.925e-05,0.0,0 STARLINK-4751,1 53825U 22114H   23263.85295971 -.00002925  00000-0 -16585-3 0  9993,2 53825  53.2184  28.2713 0001350  72.8667 287.2473 15.08822396 56835,6917.934,95.439,540.733,538.865,0.0
